{
  "type": "FeatureCollection",
  "features": [
    {
      "type": "Feature",
      "properties": {
        "norad_id": 34784,
        "name": "COSMOS 2251 DEB",
        "group": "cosmos-2251-debris",
        "lat": -33.79250849774665,
        "lon": 134.99914075462107,
        "alt_km": 705.279006248813,
        "timestamp": "2025-12-23T09:49:07.478104+00:00",
        "meta_object_name": "COSMOS 2251 DEB",
        "meta_object_id": "1993-036AAM",
        "meta_epoch": "2025-12-22T03:15:24.680448",
        "meta_mean_motion": 14.60818726,
        "meta_eccentricity": 0.00491808,
        "meta_inclination": 74.0079,
        "meta_ra_of_asc_node": 306.3699,
        "meta_arg_of_pericenter": 112.8499,
        "meta_mean_anomaly": 247.7872,
        "meta_ephemeris_type": 0,
        "meta_classification_type": "U",
        "meta_norad_cat_id": 34784,
        "meta_element_set_no": 999,
        "meta_rev_at_epoch": 88672,
        "meta_bstar": 0.00046694369,
        "meta_mean_motion_dot": 2.29e-05,
        "meta_mean_motion_ddot": 0,
        "tle_line1": "1 34784U 93036AAM 25356.13570232  .00002290  00000+0  46694-3 0  9995",
        "tle_line2": "2 34784  74.0079 306.3699 0049180 112.8499 247.7872 14.60818726886728"
      },
      "geometry": {
        "type": "Point",
        "coordinates": [
          134.99914075462107,
          -33.79250849774665
        ]
      }
    },
    {
      "type": "Feature",
      "properties": {
        "norad_id": 34790,
        "name": "COSMOS 2251 DEB",
        "group": "cosmos-2251-debris",
        "lat": 33.06547689381916,
        "lon": -124.77523949544282,
        "alt_km": 832.2809675766666,
        "timestamp": "2025-12-23T09:49:07.478114+00:00",
        "meta_object_name": "COSMOS 2251 DEB",
        "meta_object_id": "1993-036AAT",
        "meta_epoch": "2025-12-22T09:12:55.155744",
        "meta_mean_motion": 14.2466234,
        "meta_eccentricity": 0.01005704,
        "meta_inclination": 74.0529,
        "meta_ra_of_asc_node": 226.3418,
        "meta_arg_of_pericenter": 285.9399,
        "meta_mean_anomaly": 251.9972,
        "meta_ephemeris_type": 0,
        "meta_classification_type": "U",
        "meta_norad_cat_id": 34790,
        "meta_element_set_no": 999,
        "meta_rev_at_epoch": 86710,
        "meta_bstar": 0.00052625644,
        "meta_mean_motion_dot": 1.264e-05,
        "meta_mean_motion_ddot": 0,
        "tle_line1": "1 34790U 93036AAT 25356.38397171  .00001264  00000+0  52626-3 0  9990",
        "tle_line2": "2 34790  74.0529 226.3418 0100570 285.9399 251.9972 14.24662340867105"
      },
      "geometry": {
        "type": "Point",
        "coordinates": [
          -124.77523949544282,
          33.06547689381916
        ]
      }
    },
    {
      "type": "Feature",
      "properties": {
        "norad_id": 34792,
        "name": "COSMOS 2251 DEB",
        "group": "cosmos-2251-debris",
        "lat": 68.41259985729172,
        "lon": -76.95543894590618,
        "alt_km": 705.60102383108,
        "timestamp": "2025-12-23T09:49:07.478124+00:00",
        "meta_object_name": "COSMOS 2251 DEB",
        "meta_object_id": "1993-036AAV",
        "meta_epoch": "2025-12-22T04:28:07.603968",
        "meta_mean_motion": 14.5602851,
        "meta_eccentricity": 0.00123771,
        "meta_inclination": 74.0175,
        "meta_ra_of_asc_node": 151.7792,
        "meta_arg_of_pericenter": 246.3273,
        "meta_mean_anomaly": 290.8722,
        "meta_ephemeris_type": 0,
        "meta_classification_type": "U",
        "meta_norad_cat_id": 34792,
        "meta_element_set_no": 999,
        "meta_rev_at_epoch": 87787,
        "meta_bstar": 0.0010753031,
        "meta_mean_motion_dot": 4.713e-05,
        "meta_mean_motion_ddot": 0,
        "tle_line1": "1 34792U 93036AAV 25356.18619912  .00004713  00000+0  10753-2 0  9996",
        "tle_line2": "2 34792  74.0175 151.7792 0012377 246.3273 290.8722 14.56028510877879"
      },
      "geometry": {
        "type": "Point",
        "coordinates": [
          -76.95543894590618,
          68.41259985729172
        ]
      }
    },
    {
      "type": "Feature",
      "properties": {
        "norad_id": 34793,
        "name": "COSMOS 2251 DEB",
        "group": "cosmos-2251-debris",
        "lat": -58.74858217840287,
        "lon": -157.55781765396645,
        "alt_km": 766.2215997449857,
        "timestamp": "2025-12-23T09:49:07.478134+00:00",
        "meta_object_name": "COSMOS 2251 DEB",
        "meta_object_id": "1993-036AAW",
        "meta_epoch": "2025-12-22T22:30:22.701600",
        "meta_mean_motion": 14.38659924,
        "meta_eccentricity": 0.00507326,
        "meta_inclination": 74.0018,
        "meta_ra_of_asc_node": 231.5267,
        "meta_arg_of_pericenter": 23.0426,
        "meta_mean_anomaly": 354.5658,
        "meta_ephemeris_type": 0,
        "meta_classification_type": "U",
        "meta_norad_cat_id": 34793,
        "meta_element_set_no": 999,
        "meta_rev_at_epoch": 87477,
        "meta_bstar": 0.00021438541,
        "meta_mean_motion_dot": 6.41e-06,
        "meta_mean_motion_ddot": 0,
        "tle_line1": "1 34793U 93036AAW 25356.93776275  .00000641  00000+0  21439-3 0  9996",
        "tle_line2": "2 34793  74.0018 231.5267 0050732  23.0426 354.5658 14.38659924874778"
      },
      "geometry": {
        "type": "Point",
        "coordinates": [
          -157.55781765396645,
          -58.74858217840287
        ]
      }
    },
    {
      "type": "Feature",
      "properties": {
        "norad_id": 34796,
        "name": "COSMOS 2251 DEB",
        "group": "cosmos-2251-debris",
        "lat": 55.35389769102526,
        "lon": -139.17540972837529,
        "alt_km": 762.280135448279,
        "timestamp": "2025-12-23T09:49:07.478144+00:00",
        "meta_object_name": "COSMOS 2251 DEB",
        "meta_object_id": "1993-036AAZ",
        "meta_epoch": "2025-12-22T20:20:24.482112",
        "meta_mean_motion": 14.48732964,
        "meta_eccentricity": 0.01002856,
        "meta_inclination": 74.0283,
        "meta_ra_of_asc_node": 197.393,
        "meta_arg_of_pericenter": 297.2818,
        "meta_mean_anomaly": 72.7995,
        "meta_ephemeris_type": 0,
        "meta_classification_type": "U",
        "meta_norad_cat_id": 34796,
        "meta_element_set_no": 999,
        "meta_rev_at_epoch": 88174,
        "meta_bstar": 0.00046379791,
        "meta_mean_motion_dot": 1.834e-05,
        "meta_mean_motion_ddot": 0,
        "tle_line1": "1 34796U 93036AAZ 25356.84750558  .00001834  00000+0  46380-3 0  9992",
        "tle_line2": "2 34796  74.0283 197.3930 0100285 297.2818  72.7995 14.48732964881745"
      },
      "geometry": {
        "type": "Point",
        "coordinates": [
          -139.17540972837529,
          55.35389769102526
        ]
      }
    },
    {
      "type": "Feature",
      "properties": {
        "norad_id": 34797,
        "name": "COSMOS 2251 DEB",
        "group": "cosmos-2251-debris",
        "lat": -39.56862042756235,
        "lon": 66.36965397207824,
        "alt_km": 784.9273777559656,
        "timestamp": "2025-12-23T09:49:07.478154+00:00",
        "meta_object_name": "COSMOS 2251 DEB",
        "meta_object_id": "1993-036ABA",
        "meta_epoch": "2025-12-22T12:22:54.757056",
        "meta_mean_motion": 14.42950692,
        "meta_eccentricity": 0.00710542,
        "meta_inclination": 73.9783,
        "meta_ra_of_asc_node": 81.7691,
        "meta_arg_of_pericenter": 193.6898,
        "meta_mean_anomaly": 166.2334,
        "meta_ephemeris_type": 0,
        "meta_classification_type": "U",
        "meta_norad_cat_id": 34797,
        "meta_element_set_no": 999,
        "meta_rev_at_epoch": 87556,
        "meta_bstar": 0.0021692417,
        "meta_mean_motion_dot": 7.461e-05,
        "meta_mean_motion_ddot": 0,
        "tle_line1": "1 34797U 93036ABA 25356.51591154  .00007461  00000+0  21692-2 0  9992",
        "tle_line2": "2 34797  73.9783  81.7691 0071054 193.6898 166.2334 14.42950692875560"
      },
      "geometry": {
        "type": "Point",
        "coordinates": [
          66.36965397207824,
          -39.56862042756235
        ]
      }
    },
    {
      "type": "Feature",
      "properties": {
        "norad_id": 34814,
        "name": "COSMOS 2251 DEB",
        "group": "cosmos-2251-debris",
        "lat": 65.51177024818914,
        "lon": -14.983333696211059,
        "alt_km": 782.5393200051494,
        "timestamp": "2025-12-23T09:49:07.478164+00:00",
        "meta_object_name": "COSMOS 2251 DEB",
        "meta_object_id": "1993-036ABD",
        "meta_epoch": "2025-12-22T07:27:06.710112",
        "meta_mean_motion": 14.36931752,
        "meta_eccentricity": 0.00555386,
        "meta_inclination": 73.8962,
        "meta_ra_of_asc_node": 307.6876,
        "meta_arg_of_pericenter": 195.2249,
        "meta_mean_anomaly": 315.8046,
        "meta_ephemeris_type": 0,
        "meta_classification_type": "U",
        "meta_norad_cat_id": 34814,
        "meta_element_set_no": 999,
        "meta_rev_at_epoch": 87470,
        "meta_bstar": 0.00068943391,
        "meta_mean_motion_dot": 2.051e-05,
        "meta_mean_motion_ddot": 0,
        "tle_line1": "1 34814U 93036ABD 25356.31049433  .00002051  00000+0  68943-3 0  9999",
        "tle_line2": "2 34814  73.8962 307.6876 0055538 195.2249 315.8046 14.36931752874706"
      },
      "geometry": {
        "type": "Point",
        "coordinates": [
          -14.983333696211059,
          65.51177024818914
        ]
      }
    }
  ]
}